#aV2019 12  5  0  0  0.00000000     288 DD+AD WGS84 FIT  NGA
## 2082 345600.00000000   300.00000000 58822 0.0000000000000
+   32     1  2  3  4  5  6  7  8  9 10 11 12 13 14 15 16 17
+         18 19 20 21 22 23 24 25 26 27 28 29 30 31 32  0  0
+          0  0  0  0  0  0  0  0  0  0  0  0  0  0  0  0  0
+          0  0  0  0  0  0  0  0  0  0  0  0  0  0  0  0  0
+          0  0  0  0  0  0  0  0  0  0  0  0  0  0  0  0  0
++         2  2  2  2  2  2  2  2  2  2  2  2  2  2  2  2  2
++         2  2  2  2  2  2  2  2  2  2  2  2  2  2  2  0  0
++         0  0  0  0  0  0  0  0  0  0  0  0  0  0  0  0  0
++         0  0  0  0  0  0  0  0  0  0  0  0  0  0  0  0  0
++         0  0  0  0  0  0  0  0  0  0  0  0  0  0  0  0  0
%c cc cc ccc ccc cccc cccc cccc cccc ccccc ccccc ccccc ccccc
%c cc cc ccc ccc cccc cccc cccc cccc ccccc ccccc ccccc ccccc
%f  0.0000000  0.000000000  0.00000000000  0.000000000000000
%f  0.0000000  0.000000000  0.00000000000  0.000000000000000
%i    0    0    0    0      0      0      0      0         0
%i    0    0    0    0      0      0      0      0         0
/*      NGA, ST. LOUIS,MO.                                  
/*   EPHEMERIS COMPUTED FROM 2 DAYS OF DATA                 
/*   EPOCHA v5 SMOOTHER                                     
/*   G1762 IERS2010 SATAF SATAPC                            
*  2019 12  5 15 40  0.00000000
P  1 -14304.575181  21516.634531   5163.621790   -219.871942                    
V  1    753.339615  -7263.385132  31443.896640     -0.124385                    
P  2  16394.964289  -3085.453163 -20012.874942   -360.416152                    
V  2  -8844.403103  25404.007112 -10940.020863     -0.075000                    
P  3 -15365.390509  13178.115309 -17208.936510    -47.725929                    
V  3 -21829.173484    -10.733653  19635.515482     -0.064790                    
P  4  -3764.230034  18403.133059 -18700.750511    -16.877915                    
V  4 -14131.538482 -19311.762684 -16108.482833     -0.046779                    
P  5  26531.916756  -2668.023973   -265.989500     -4.305476                    
V  5    144.680786   2967.438503 -31407.561960     -0.005009                    
P  6  10540.846270  11487.796401 -21450.210538   -144.623520                    
V  6 -12187.917710  24438.560567   7109.672461     -0.113808                    
P  7  -3488.225289  23987.789688  10558.622357   -163.483717                    
V  7  -8456.224247  10514.507265 -27886.182709     -0.082024                    
P  8 -13716.818586   6523.035159  21837.242767    -15.701326                    
V  8 -15837.004674 -22602.858285  -2981.937671     -0.012774                    
P  9   3402.412848  22233.854259 -14170.684555   -100.648891                    
V  9 -12270.693462 -13276.227631 -23876.816132     -0.094809                    
P 10 -14607.873311 -11940.702943  18850.659893   -160.848241                    
V 10  23532.219152  -3153.894233  16071.438506     -0.144185                    
P 11  -8832.923158  22032.438352  11719.168349   -428.155108                    
V 11  -3691.382908 -15617.926703  25175.899641      0.110725                    
P 12  19963.592997  -9923.137135 -14525.410347    176.386675                    
V 12  18111.593826   1531.205793  24372.973684     -0.040127                    
P 13  17104.120083   3139.529532  19974.463256    -28.575017                    
V 13  10821.548526  23215.555675 -12763.628273      0.024069                    
P 14 -18158.870240 -15605.757457 -11362.868667    -46.588623                    
V 14  -5357.702018 -14067.460308  26929.505594      0.021856                    
P 15  13260.230725  -8708.914761  21018.411161   -267.817821                    
V 15  17675.709452  21074.514540  -2000.357401      0.026769                    
P 16 -26739.543438  -1291.199534  -1553.605439    -99.975777                    
V 16   1725.165932  -1780.886399 -31816.730933     -0.038403                    
P 17  14573.323194  22174.418653  -1409.770778    175.358848                    
V 17   -542.198001   3023.287518  32153.492036      0.068610                    
P 18 -16279.011428  16492.088893  12389.942015    104.725874                    
V 18   3922.619209 -16324.183531  25931.491123      0.024930                    
P 19  17160.133370  17975.749834  -9642.797498   -230.435585                    
V 19   4018.272763  11252.329079  29025.808906      0.051678                    
P 20  -3813.446835 -15324.341554  21258.132160    527.601502                    
V 20  26762.646981  -5582.769984    574.867175      0.000524                    
P 21   -823.600752 -23489.234535  13359.970198    -75.507619                    
V 21   7795.951309 -13715.968299 -24935.612744      0.058357                    
P 22 -21470.157759  11324.576816 -10443.098243   -775.892821                    
V 22 -14051.361566  -1267.431660  27056.168142     -0.021691                    
P 23  -5270.676255  16804.171093 -19421.833616   -151.414485                    
V 23 -16283.136722 -19812.611608 -12882.355767      0.023293                    
P 24  14412.572458 -20725.303662   7466.082520     -5.797320                    
V 24   -350.675094  10494.487759  29470.927892     -0.004499                    
P 25   5586.751946 -15119.054708 -21278.751310    -17.420478                    
V 25  26529.075612  -1274.803309   8211.027698      0.000197                    
P 26 -23741.924549  -5292.977601 -10927.352192     99.161423                    
V 26  13436.512333  -4072.404532 -27062.239523      0.082148                    
P 27 -18716.832083  -5886.196884  17935.461431   -141.141806                    
V 27 -12003.844566 -19468.511174 -18491.584830     -0.117350                    
P 28  14212.960107  12885.475050  18918.520211    752.038202                    
V 28 -22786.928936    791.745251  17257.136849     -0.018064                    
P 29  -1360.770905 -21856.012556 -15043.421787     26.367552                    
V 29  10969.877719  15596.412485 -23719.218094     -0.098229                    
P 30   5315.895429  18521.541191  18227.550970    -99.129864                    
V 30 -12504.768912  19663.762141 -16555.237789     -0.085554                    
P 31 -12435.925801  -9041.603735 -21651.066799     -7.784484                    
V 31  12934.800848 -24248.178114   3152.409506     -0.025558                    
P 32 -16341.101030 -20927.249923  -2022.634026    146.324789                    
V 32    820.732495  -3782.591161  31434.065459      0.116088                    
EOF
